NORAD_CAT_ID,OBJECT_NAME,OBJECT_TYPE,EPOCH,MEAN_MOTION,ECCENTRICITY,INCLINATION,RA_OF_ASC_NODE,ARG_OF_PERICENTER,MEAN_ANOMALY,BSTAR,MEAN_MOTION_DOT,MEAN_MOTION_DDOT,TLE_LINE0,TLE_LINE1,TLE_LINE2,SEMIMAJOR_AXIS,PERIOD,APOGEE,PERIGEE,DECAYED
52092.0,STARLINK-3716,PAYLOAD,2023-02-05 11:36:07,15.08847768,0.0001581,53.2168,113.8391,120.3132,239.8017,0.00011564,1.553e-05,0.0,0 STARLINK-3716,1 52092U 22029E   23036.48341769  .00001553  00000-0  11564-3 0  9993,2 52092  53.2168 113.8391 0001581 120.3132 239.8017 15.08847768 50333,6917.857,95.437,540.815,538.628,0.0
52092.0,STARLINK-3716,PAYLOAD,2023-02-06 05:05:22,15.08841901,0.0001374,53.2173,110.5732,79.2183,280.8964,-2.3384e-05,-6.6e-06,0.0,0 STARLINK-3716,1 52092U 22029E   23037.21206615 -.00000660  00000-0 -23384-4 0  9999,2 52092  53.2173 110.5732 0001374  79.2183 280.8964 15.08841901 50442,6917.875,95.437,540.69,538.789,0.0
52092.0,STARLINK-3716,PAYLOAD,2023-02-06 13:02:17,15.08845654,0.0001351,53.2182,109.0859,86.041,274.0737,-4.8745e-05,-1.064e-05,0.0,0 STARLINK-3716,1 52092U 22029E   23037.54326305 -.00001064  00000-0 -48745-4 0  9991,2 52092  53.2182 109.0859 0001351  86.0410 274.0737 15.08845654 50496,6917.863,95.437,540.663,538.794,0.0
52092.0,STARLINK-3716,PAYLOAD,2023-02-06 14:37:40,15.08849789,0.0001231,53.2173,108.7836,109.0261,251.0865,-6.1262e-05,-1.263e-05,0.0,0 STARLINK-3716,1 52092U 22029E   23037.60949901 -.00001263  00000-0 -61262-4 0  9991,2 52092  53.2173 108.7836 0001231 109.0261 251.0865 15.08849789 50506,6917.85,95.437,540.567,538.864,0.0
52092.0,STARLINK-3716,PAYLOAD,2023-02-07 04:56:09,15.08840513,0.0001259,53.2167,106.1078,108.5995,251.5134,4.1695e-05,3.76e-06,0.0,0 STARLINK-3716,1 52092U 22029E   23038.20566058  .00000376  00000-0  41695-4 0  9996,2 52092  53.2167 106.1078 0001259 108.5995 251.5134 15.08840513 50596,6917.879,95.438,540.615,538.873,0.0
52092.0,STARLINK-3716,PAYLOAD,2023-02-07 12:53:03,15.08856147,0.0001333,53.2186,104.6264,94.8299,265.2845,0.00015624,2.201e-05,0.0,0 STARLINK-3716,1 52092U 22029E   23038.53684762  .00002201  00000-0  15624-3 0  9996,2 52092  53.2186 104.6264 0001333  94.8299 265.2845 15.08856147 50641,6917.831,95.437,540.618,538.774,0.0
52092.0,STARLINK-3716,PAYLOAD,2023-02-07 14:28:26,15.08858521,0.0001381,53.2188,104.3234,100.5843,259.5305,0.00014931,2.09e-05,0.0,0 STARLINK-3716,1 52092U 22029E   23038.60308671  .00002090  00000-0  14931-3 0  9992,2 52092  53.2188 104.3234 0001381 100.5843 259.5305 15.08858521 50656,6917.824,95.436,540.644,538.733,0.0
52092.0,STARLINK-3716,PAYLOAD,2023-02-07 20:50:00,15.08834183,0.0001817,53.2172,103.1333,89.7153,270.4047,4.8303e-05,4.81e-06,0.0,0 STARLINK-3716,1 52092U 22029E   23038.86806623  .00000481  00000-0  48303-4 0  9993,2 52092  53.2172 103.1333 0001817  89.7153 270.4047 15.08834183 50699,6917.898,95.438,541.02,538.506,0.0
52092.0,STARLINK-3716,PAYLOAD,2023-02-08 12:43:51,15.08844305,0.0001069,53.2163,100.1603,110.0243,250.0864,0.00010709,1.417e-05,0.0,0 STARLINK-3716,1 52092U 22029E   23039.53045808  .00001417  00000-0  10709-3 0  9996,2 52092  53.2163 100.1603 0001069 110.0243 250.0864 15.08844305 50792,6917.867,95.437,540.472,538.993,0.0
52092.0,STARLINK-3716,PAYLOAD,2023-02-09 04:37:43,15.08832571,0.0001013,53.2161,97.1878,93.5829,266.5279,-0.00025022,-4.267e-05,0.0,0 STARLINK-3716,1 52092U 22029E   23040.19286690 -.00004267  00000-0 -25022-3 0  9998,2 52092  53.2161  97.1878 0001013  93.5829 266.5279 15.08832571 50898,6917.903,95.438,540.469,539.067,0.0
52092.0,STARLINK-3716,PAYLOAD,2023-02-09 10:59:16,15.08836665,0.0001156,53.2167,95.9986,100.0757,260.0366,-0.00012009,-2.198e-05,0.0,0 STARLINK-3716,1 52092U 22029E   23040.45782818 -.00002198  00000-0 -12009-3 0  9992,2 52092  53.2167  95.9986 0001156 100.0757 260.0366 15.08836665 50931,6917.891,95.438,540.555,538.956,0.0
52092.0,STARLINK-3716,PAYLOAD,2023-02-09 20:31:35,15.08841334,0.0001069,53.2164,94.2147,75.8706,284.2405,1.2886e-05,-8.3e-07,0.0,0 STARLINK-3716,1 52092U 22029E   23040.85526885 -.00000083  00000-0  12886-4 0  9990,2 52092  53.2164  94.2147 0001069  75.8706 284.2405 15.08841334 50992,6917.876,95.437,540.481,539.002,0.0
52092.0,STARLINK-3716,PAYLOAD,2023-02-10 02:53:08,15.08830291,0.0001159,53.2164,93.027,80.8941,279.2182,0.00021109,3.072e-05,0.0,0 STARLINK-3716,1 52092U 22029E   23041.12023730  .00003072  00000-0  21109-3 0  9999,2 52092  53.2164  93.0270 0001159  80.8941 279.2182 15.08830291 51035,6917.91,95.438,540.577,538.973,0.0
52092.0,STARLINK-3716,PAYLOAD,2023-02-10 10:50:03,15.08849223,9.67e-05,53.2159,91.538,85.2249,274.8853,0.00027855,4.149e-05,0.0,0 STARLINK-3716,1 52092U 22029E   23041.45142739  .00004149  00000-0  27855-3 0  9996,2 52092  53.2159  91.5380 0000967  85.2249 274.8853 15.08849223 51086,6917.852,95.437,540.386,539.048,0.0
52092.0,STARLINK-3716,PAYLOAD,2023-02-11 05:54:41,15.08836237,0.0001049,53.2159,87.9692,95.9701,264.141,0.00015302,2.148e-05,0.0,0 STARLINK-3716,1 52092U 22029E   23042.24631842  .00002148  00000-0  15302-3 0  9993,2 52092  53.2159  87.9692 0001049  95.9701 264.1410 15.08836237 51200,6917.892,95.438,540.483,539.031,0.0
52092.0,STARLINK-3716,PAYLOAD,2023-02-11 12:16:14,15.08847594,0.0001289,53.2143,86.7845,73.5034,286.61,0.0002689,3.995e-05,0.0,0 STARLINK-3716,1 52092U 22029E   23042.51127487  .00003995  00000-0  26890-3 0  9993,2 52092  53.2143  86.7845 0001289  73.5034 286.6100 15.08847594 51244,6917.857,95.437,540.614,538.83,0.0
52092.0,STARLINK-3716,PAYLOAD,2023-02-11 20:13:10,15.0883789,0.0001402,53.2167,85.2953,85.4504,274.6649,6.3005e-05,7.15e-06,0.0,0 STARLINK-3716,1 52092U 22029E   23042.84247836  .00000715  00000-0  63005-4 0  9997,2 52092  53.2167  85.2953 0001402  85.4504 274.6649 15.08837890 51293,6917.887,95.438,540.722,538.782,0.0
52092.0,STARLINK-3716,PAYLOAD,2023-02-12 12:07:00,15.0885464,0.0001318,53.2167,82.3199,99.575,260.5391,0.00032382,4.871e-05,0.0,0 STARLINK-3716,1 52092U 22029E   23043.50486986  .00004871  00000-0  32382-3 0  9992,2 52092  53.2167  82.3199 0001318  99.5750 260.5391 15.08854640 51399,6917.836,95.437,540.612,538.789,0.0
52092.0,STARLINK-3716,PAYLOAD,2023-02-12 20:03:57,15.08835689,0.0001376,53.2164,80.8336,84.4114,275.7035,-9.8857e-08,-2.89e-06,0.0,0 STARLINK-3716,1 52092U 22029E   23043.83607859 -.00000289  00000-0 -98857-7 0  9996,2 52092  53.2164  80.8336 0001376  84.4114 275.7035 15.08835689 51444,6917.894,95.438,540.71,538.807,0.0
52092.0,STARLINK-3716,PAYLOAD,2023-02-13 11:57:48,15.08850832,0.0001433,53.2173,77.8596,94.5649,265.5507,0.00040691,6.196e-05,0.0,0 STARLINK-3716,1 52092U 22029E   23044.49847663  .00006196  00000-0  40691-3 0  9998,2 52092  53.2173  77.8596 0001433  94.5649 265.5507 15.08850832 51546,6917.847,95.437,540.704,538.721,0.0
52092.0,STARLINK-3716,PAYLOAD,2023-02-14 10:13:12,15.08866685,0.000113,53.2166,73.6968,95.709,264.4031,0.0023148,0.00036771,0.0,0 STARLINK-3716,1 52092U 22029E   23045.42583881  .00036771  00000-0  23148-2 0  9990,2 52092  53.2166  73.6968 0001130  95.7090 264.4031 15.08866685 51680,6917.799,95.436,540.446,538.882,0.0
52092.0,STARLINK-3716,PAYLOAD,2023-02-14 13:23:58,15.08873507,0.0001149,53.2168,73.102,98.9062,261.206,0.0022927,0.00036423,0.0,0 STARLINK-3716,1 52092U 22029E   23045.55831620  .00036423  00000-0  22927-2 0  9999,2 52092  53.2168  73.1020 0001149  98.9062 261.2060 15.08873507 51701,6917.778,95.435,540.438,538.848,0.0
52092.0,STARLINK-3716,PAYLOAD,2023-02-15 05:17:50,15.08853025,0.0001192,53.2167,70.1279,121.268,238.8429,0.0015113,0.00023855,0.0,0 STARLINK-3716,1 52092U 22029E   23046.22071974  .00023855  00000-0  15113-2 0  9996,2 52092  53.2167  70.1279 0001192 121.2680 238.8429 15.08853025 51800,6917.841,95.437,540.53,538.881,0.0
52092.0,STARLINK-3716,PAYLOAD,2023-02-15 11:39:22,15.08867943,0.0001274,53.2167,68.9385,119.0346,241.0774,0.002299,0.00036518,0.0,0 STARLINK-3716,1 52092U 22029E   23046.48567733  .00036518  00000-0  22990-2 0  9998,2 52092  53.2167  68.9385 0001274 119.0346 241.0774 15.08867943 51845,6917.795,95.436,540.541,538.779,0.0
52092.0,STARLINK-3716,PAYLOAD,2023-02-15 18:00:54,15.08899808,0.0001282,53.2167,67.7491,122.1324,237.9793,0.0029681,0.00047344,0.0,0 STARLINK-3716,1 52092U 22029E   23046.75062861  .00047344  00000-0  29681-2 0  9993,2 52092  53.2167  67.7491 0001282 122.1324 237.9793 15.08899808 51884,6917.698,95.434,540.449,538.676,0.0
52092.0,STARLINK-3716,PAYLOAD,2023-02-16 08:19:22,15.08875246,0.0001249,53.2165,65.0729,113.7896,246.3227,0.0021214,0.00033668,0.0,0 STARLINK-3716,1 52092U 22029E   23047.34679156  .00033668  00000-0  21214-2 0  9998,2 52092  53.2165  65.0729 0001249 113.7896 246.3227 15.08875246 51976,6917.773,95.435,540.502,538.774,0.0
52092.0,STARLINK-3716,PAYLOAD,2023-02-16 11:30:08,15.08881448,0.0001205,53.2165,64.4783,108.9668,251.1455,0.0020698,0.00032844,0.0,0 STARLINK-3716,1 52092U 22029E   23047.47926854  .00032844  00000-0  20698-2 0  9992,2 52092  53.2165  64.4783 0001205 108.9668 251.1455 15.08881448 51994,6917.754,95.435,540.452,538.785,0.0
52092.0,STARLINK-3716,PAYLOAD,2023-02-16 17:51:41,15.08839033,0.000186,53.2165,63.2888,82.7743,277.3461,0.00028797,4.298e-05,0.0,0 STARLINK-3716,1 52092U 22029E   23047.74423545  .00004298  00000-0  28797-3 0  9992,2 52092  53.2165  63.2888 0001860  82.7743 277.3461 15.08839033 52033,6917.883,95.438,541.035,538.462,0.0
52092.0,STARLINK-3716,PAYLOAD,2023-02-17 04:59:24,15.0880761,0.0001031,53.2161,61.2078,82.1502,277.9608,0.00025779,3.814e-05,0.0,0 STARLINK-3716,1 52092U 22029E   23048.20792477  .00003814  00000-0  25779-3 0  9997,2 52092  53.2161  61.2078 0001031  82.1502 277.9608 15.08807610 52108,6917.979,95.44,540.558,539.131,0.0
52092.0,STARLINK-3716,PAYLOAD,2023-02-17 12:56:20,15.08826607,0.0001304,53.216,59.7199,79.7477,280.3662,0.00093929,0.00014687,0.0,0 STARLINK-3716,1 52092U 22029E   23048.53912899  .00014687  00000-0  93929-3 0  9997,2 52092  53.2160  59.7199 0001304  79.7477 280.3662 15.08826607 52159,6917.921,95.438,540.688,538.884,0.0
